O3B FM5                 
1 39188U 13031A   21274.59440885 -.00000021  00000-0  00000-0 0  9990
2 39188   0.0488 347.5015 0002195 208.4218 164.0746  5.00116115151014
O3B FM4                 
1 39189U 13031B   21273.66068511 -.00000022  00000-0  00000-0 0  9991
2 39189   0.0462  20.9796 0004245 146.7367 192.2988  5.00116201150984
O3B FM2                 
1 39190U 13031C   21274.71258334 -.00000020  00000-0  00000-0 0  9992
2 39190   0.0466  27.4337 0007224 130.4193 202.1830  5.00115889151080
O3B PFM                 
1 39191U 13031D   21274.76613207 -.00000020  00000-0  00000-0 0  9992
2 39191   0.0476 358.1108 0002344 182.4897 179.4040  5.00115955150888
O3B FM3                 
1 40079U 14038A   21275.24704338 -.00000020  00000-0  00000+0 0  9996
2 40079   0.0447  11.8691 0002532 234.2976 113.8117  5.00115446132136
O3B FM7                 
1 40080U 14038B   21273.99408798 -.00000021  00000-0  00000-0 0  9991
2 40080   0.0415  15.8040 0003598 144.0808 200.1341  5.00115894131821
O3B FM6                 
1 40081U 14038C   21274.42000861 -.00000021  00000-0  00000-0 0  9990
2 40081   0.0454  12.6433 0002585 177.7924 169.5638  5.00115562131798
O3B FM8                 
1 40082U 14038D   21273.47452999 -.00000022  00000-0  00000-0 0  9999
2 40082   0.0467  16.1673 0002707 175.1642 168.6671  5.00115472131868
O3B FM10                
1 40348U 14083A   21274.50012806 -.00000021  00000-0  00000-0 0  9997
2 40348   0.0500   3.3104 0002567 188.6118 168.0766  5.00115893123866
O3B FM11                
1 40349U 14083B   21274.51332482 -.00000021  00000-0  00000-0 0  9994
2 40349   0.0456   1.3598 0002437 173.8520 184.7954  5.00115188123884
O3B FM12                
1 40350U 14083C   21274.98069928 -.00000020  00000-0  00000+0 0  9997
2 40350   0.0459   2.7345 0002689 183.8474 173.4194  5.00115751124048
O3B FM9                 
1 40351U 14083D   21274.56736857 -.00000021  00000-0  00000-0 0  9996
2 40351   0.0447   0.3826 0002532 190.0081 169.6089  5.00115114124048
DIAMOND RED             
1 42783U 17036U   21275.40217251  .00003197  00000-0  13347-3 0  9991
2 42783  97.2396 320.2193 0012259 156.1795 204.0013 15.24287060237608
DIAMOND GREEN           
1 42785U 17036W   21274.87590894  .00004112  00000-0  17098-3 0  9995
2 42785  97.2400 319.7632 0012104 158.2395 201.9359 15.24262859237591
DIAMOND BLUE            
1 42786U 17036X   21274.87505001  .00003813  00000-0  15873-3 0  9998
2 42786  97.2399 319.7546 0012008 158.8137 201.3600 15.24267793237591
LEO VANTAGE 1           
1 43113U 18004C   21275.40753700 -.00000268  00000-0 -15331-3 0  9992
2 43113  99.2949 331.6051 0125966 221.3779 137.7787 13.95392886187263
O3B FM15                
1 43231U 18024A   21274.63377667 -.00000020  00000-0  00000-0 0  9992
2 43231   0.0534   4.2185 0002586 185.5897 170.1916  5.00115643 65002
O3B FM16                
1 43232U 18024B   21274.48720038 -.00000021  00000-0  00000-0 0  9991
2 43232   0.0576   4.1052 0002597 185.3885 170.5062  5.00115583 64916
O3B FM14                
1 43233U 18024C   21274.12710351 -.00000021  00000-0  00000-0 0  9990
2 43233   0.0590   4.7548 0002674 180.5977 174.6494  5.00116087 64907
O3B FM13                
1 43234U 18024D   21274.54064895 -.00000021  00000-0  00000-0 0  9992
2 43234   0.0436 337.9095 0000874 128.0804 254.0246  5.00115640 65049
O3B FM20                
1 44112U 19020A   21274.55327637 -.00000021  00000-0  00000-0 0  9992
2 44112   0.0501   4.1940 0002343 179.8703 175.9387  5.00115705 45547
O3B FM19                
1 44113U 19020B   21274.94041980 -.00000020  00000-0  00000+0 0  9998
2 44113   0.0425 316.6889 0001448 249.6124 153.6962  5.00115675 45621
O3B FM17                
1 44114U 19020C   21273.66113870 -.00000022  00000-0  00000-0 0  9998
2 44114   0.0619  20.2005 0002517 169.3312 170.4682  5.00115247 45452
O3B FM18                
1 44115U 19020D   21274.40741915 -.00000021  00000-0  00000-0 0  9998
2 44115   0.0499   3.6334 0002696 187.0458 169.3200  5.00115620 45600
SALSAT                  
1 46495U 20068K   21274.94520482  .00000719  00000-0  57010-4 0  9998
2 46495  97.6987 211.8437 0019005  73.6187 286.7126 15.03573598 55333
